[{"OBJECT_NAME":"YAOGAN-17 01B","OBJECT_ID":"2013-046B","EPOCH":"2026-03-09T23:28:17.968800","MEAN_MOTION":13.45462067,"ECCENTRICITY":0.04175789,"INCLINATION":63.3912,"RA_OF_ASC_NODE":346.726,"ARG_OF_PERICENTER":10.9429,"MEAN_ANOMALY":350.0341,"EPHEMERIS_TYPE":0,"CLASSIFICATION_TYPE":"U","NORAD_CAT_ID":39240,"ELEMENT_SET_NO":999,"REV_AT_EPOCH":61498,"BSTAR":9.3249137e-5,"MEAN_MOTION_DOT":3.0e-8,"MEAN_MOTION_DDOT":0},{"OBJECT_NAME":"HULIANWANG DIGUI-69","OBJECT_ID":"2025-178B","EPOCH":"2026-03-09T22:16:41.372832","MEAN_MOTION":13.24417865,"ECCENTRICITY":0.00019734,"INCLINATION":86.497,"RA_OF_ASC_NODE":47.0498,"ARG_OF_PERICENTER":79.128,"MEAN_ANOMALY":281.0076,"EPHEMERIS_TYPE":0,"CLASSIFICATION_TYPE":"U","NORAD_CAT_ID":65229,"ELEMENT_SET_NO":999,"REV_AT_EPOCH":2717,"BSTAR":3.4083948e-5,"MEAN_MOTION_DOT":2.9e-7,"MEAN_MOTION_DDOT":0}]
